{
  "norad_id": 46355,
  "name": "STARLINK-1661",
  "history": [
    {
      "epoch": "2026-03-28T19:11:19.844736Z",
      "apogee_km": 472.96539126532844,
      "perigee_km": 472.5162477154827,
      "latitude_deg": -2.9940800749509285e-06,
      "longitude_deg": 168.14731758922838,
      "height_km": 473.5758983090884,
      "semi_major_axis_km": 6850.877819490405,
      "eccentricity": 3.278e-05,
      "inclination_deg": 53.1593,
      "raan_deg": 282.1948,
      "arg_perigee_deg": 73.3104,
      "mean_anomaly_deg": 286.7933,
      "mean_motion_rev_day": 15.31029041
    },
    {
      "epoch": "2026-03-29T21:49:16.874976Z",
      "apogee_km": 472.5412037372762,
      "perigee_km": 472.0466026260665,
      "latitude_deg": 3.89102271290224e-05,
      "longitude_deg": 122.4039649392968,
      "height_km": 473.0084811331097,
      "semi_major_axis_km": 6850.430903181671,
      "eccentricity": 3.61e-05,
      "inclination_deg": 53.1593,
      "raan_deg": 277.0328,
      "arg_perigee_deg": 41.5262,
      "mean_anomaly_deg": 318.5767,
      "mean_motion_rev_day": 15.31178868
    }
  ]
}